start=new Date('2021-12-01T00:00:00.000Z').valueOf();
sats=[{"ECCENTRICITY":"0.00012270","TIME_SYSTEM":"UTC","FILE":"3228256","REF_FRAME":"TEME","RCS_SIZE":"LARGE","OBJECT_TYPE":"PAYLOAD","COUNTRY_CODE":"US","DECAY_DATE":null,"CENTER_NAME":"EARTH","MEAN_MOTION":"15.06400109","ELEMENT_SET_NO":"999","MEAN_MOTION_DOT":"0.00000301","APOAPSIS":"548.063","LAUNCH_DATE":"2020-01-29","RA_OF_ASC_NODE":"70.3549","SEMIMAJOR_AXIS":"6925.348","MEAN_MOTION_DDOT":"0.0000000000000","TLE_LINE2":"2 45065  53.0561  70.3549 0001227  79.5345 280.5782 15.06400109101599","CLASSIFICATION_TYPE":"U","OBJECT_ID":"2020-006X","PERIOD":"95.592","MEAN_ANOMALY":"280.5782","EPOCH":"2021-11-30T13:17:22.047360","OBJECT_NAME":"STARLINK-1139","GP_ID":"190814241","SITE":"AFETR","BSTAR":"0.00003907400000","INCLINATION":"53.0561","PERIAPSIS":"546.363","MEAN_ELEMENT_THEORY":"SGP4","REV_AT_EPOCH":"10159","ARG_OF_PERICENTER":"79.5345","EPHEMERIS_TYPE":"0","NORAD_CAT_ID":"45065","TLE_LINE1":"1 45065U 20006X   21334.55372740  .00000301  00000-0  39074-4 0  9995"},{"MEAN_MOTION":"15.06396004","MEAN_MOTION_DOT":"0.00000560","ELEMENT_SET_NO":"999","ECCENTRICITY":"0.00012700","RCS_SIZE":"LARGE","OBJECT_TYPE":"PAYLOAD","REF_FRAME":"TEME","CENTER_NAME":"EARTH","DECAY_DATE":null,"COUNTRY_CODE":"US","TIME_SYSTEM":"UTC","FILE":"3228256","GP_ID":"190815492","BSTAR":"0.00005648300000","SITE":"AFETR","INCLINATION":"53.0558","PERIOD":"95.592","MEAN_ANOMALY":"283.3337","EPOCH":"2021-11-30T09:29:08.628864","OBJECT_NAME":"STARLINK-1145","ARG_OF_PERICENTER":"76.7793","EPHEMERIS_TYPE":"0","NORAD_CAT_ID":"45066","TLE_LINE1":"1 45066U 20006Y   21334.39523876  .00000560  00000-0  56483-4 0  9996","PERIAPSIS":"546.346","MEAN_ELEMENT_THEORY":"SGP4","REV_AT_EPOCH":"10156","LAUNCH_DATE":"2020-01-29","APOAPSIS":"548.105","SEMIMAJOR_AXIS":"6925.361","RA_OF_ASC_NODE":"71.0611","MEAN_MOTION_DDOT":"0.0000000000000","TLE_LINE2":"2 45066  53.0558  71.0611 0001270  76.7793 283.3337 15.06396004101560","CLASSIFICATION_TYPE":"U","OBJECT_ID":"2020-006Y"},{"FILE":"3228256","TIME_SYSTEM":"UTC","CENTER_NAME":"EARTH","DECAY_DATE":null,"COUNTRY_CODE":"US","RCS_SIZE":"LARGE","REF_FRAME":"TEME","OBJECT_TYPE":"PAYLOAD","ECCENTRICITY":"0.00012190","ELEMENT_SET_NO":"999","MEAN_MOTION_DOT":"-0.00000129","MEAN_MOTION":"15.06403388","OBJECT_ID":"2020-006Z","CLASSIFICATION_TYPE":"U","TLE_LINE2":"2 45067  53.0562  70.3861 0001219  77.4873 282.6252 15.06403388101590","MEAN_MOTION_DDOT":"0.0000000000000","RA_OF_ASC_NODE":"70.3861","SEMIMAJOR_AXIS":"6925.338","LAUNCH_DATE":"2020-01-29","APOAPSIS":"548.047","REV_AT_EPOCH":"10159","MEAN_ELEMENT_THEORY":"SGP4","PERIAPSIS":"546.359","TLE_LINE1":"1 45067U 20006Z   21334.54267023 -.00000129  00000-0  10201-4 0  9993","NORAD_CAT_ID":"45067","ARG_OF_PERICENTER":"77.4873","EPHEMERIS_TYPE":"0","OBJECT_NAME":"STARLINK-1150","EPOCH":"2021-11-30T13:01:26.707872","MEAN_ANOMALY":"282.6252","PERIOD":"95.592","INCLINATION":"53.0562","GP_ID":"190815743","SITE":"AFETR","BSTAR":"0.00001020100000"},{"INCLINATION":"53.0553","GP_ID":"190814491","BSTAR":"0.00009483000000","SITE":"AFETR","OBJECT_NAME":"STARLINK-1161","EPOCH":"2021-11-30T12:45:33.782400","MEAN_ANOMALY":"267.7170","PERIOD":"95.592","TLE_LINE1":"1 45068U 20006AA  21334.53164100  .00001131  00000-0  94830-4 0  9998","NORAD_CAT_ID":"45068","EPHEMERIS_TYPE":"0","ARG_OF_PERICENTER":"92.3978","REV_AT_EPOCH":"10158","MEAN_ELEMENT_THEORY":"SGP4","PERIAPSIS":"546.250","MEAN_MOTION_DDOT":"0.0000000000000","TLE_LINE2":"2 45068  53.0553  70.4522 0001387  92.3978 267.7170 15.06401065101586","RA_OF_ASC_NODE":"70.4522","SEMIMAJOR_AXIS":"6925.345","APOAPSIS":"548.171","LAUNCH_DATE":"2020-01-29","OBJECT_ID":"2020-006AA","CLASSIFICATION_TYPE":"U","MEAN_MOTION":"15.06401065","MEAN_MOTION_DOT":"0.00001131","ELEMENT_SET_NO":"999","ECCENTRICITY":"0.00013870","COUNTRY_CODE":"US","DECAY_DATE":null,"CENTER_NAME":"EARTH","REF_FRAME":"TEME","RCS_SIZE":"LARGE","OBJECT_TYPE":"PAYLOAD","FILE":"3228256","TIME_SYSTEM":"UTC"},{"TIME_SYSTEM":"UTC","FILE":"3228256","OBJECT_TYPE":"PAYLOAD","RCS_SIZE":"LARGE","REF_FRAME":"TEME","CENTER_NAME":"EARTH","DECAY_DATE":null,"COUNTRY_CODE":"US","ECCENTRICITY":"0.00014740","ELEMENT_SET_NO":"999","MEAN_MOTION_DOT":"0.00000477","MEAN_MOTION":"15.06392759","OBJECT_ID":"2020-006AD","CLASSIFICATION_TYPE":"U","MEAN_MOTION_DDOT":"0.0000000000000","TLE_LINE2":"2 45071  53.0545  70.2474 0001474  92.5496 267.5661 15.06392759101592","LAUNCH_DATE":"2020-01-29","APOAPSIS":"548.257","RA_OF_ASC_NODE":"70.2474","SEMIMAJOR_AXIS":"6925.371","REV_AT_EPOCH":"10159","PERIAPSIS":"546.215","MEAN_ELEMENT_THEORY":"SGP4","NORAD_CAT_ID":"45071","TLE_LINE1":"1 45071U 20006AD  21334.57584799  .00000477  00000-0  50937-4 0  9998","ARG_OF_PERICENTER":"92.5496","EPHEMERIS_TYPE":"0","EPOCH":"2021-11-30T13:49:13.266336","OBJECT_NAME":"STARLINK-1167","PERIOD":"95.593","MEAN_ANOMALY":"267.5661","INCLINATION":"53.0545","BSTAR":"0.00005093700000","GP_ID":"190814741","SITE":"AFETR"},{"TLE_LINE2":"2 45072  53.0529  71.1193 0001447  78.2848 281.8303 15.06397964101567","MEAN_MOTION_DDOT":"0.0000000000000","APOAPSIS":"548.222","LAUNCH_DATE":"2020-01-29","SEMIMAJOR_AXIS":"6925.355","RA_OF_ASC_NODE":"71.1193","OBJECT_ID":"2020-006AE","CLASSIFICATION_TYPE":"U","EPOCH":"2021-11-30T09:07:54.516576","OBJECT_NAME":"STARLINK-1168","PERIOD":"95.592","MEAN_ANOMALY":"281.8303","INCLINATION":"53.0529","GP_ID":"190814993","SITE":"AFETR","BSTAR":"0.00002796300000","REV_AT_EPOCH":"10156","PERIAPSIS":"546.218","MEAN_ELEMENT_THEORY":"SGP4","NORAD_CAT_ID":"45072","TLE_LINE1":"1 45072U 20006AE  21334.38049209  .00000135  00000-0  27963-4 0  9994","EPHEMERIS_TYPE":"0","ARG_OF_PERICENTER":"78.2848","ECCENTRICITY":"0.00014470","TIME_SYSTEM":"UTC","FILE":"3228256","OBJECT_TYPE":"PAYLOAD","RCS_SIZE":"LARGE","REF_FRAME":"TEME","DECAY_DATE":null,"CENTER_NAME":"EARTH","COUNTRY_CODE":"US","MEAN_MOTION":"15.06397964","ELEMENT_SET_NO":"999","MEAN_MOTION_DOT":"0.00000135"},{"TIME_SYSTEM":"UTC","FILE":"3228256","REF_FRAME":"TEME","RCS_SIZE":"LARGE","OBJECT_TYPE":"PAYLOAD","DECAY_DATE":null,"CENTER_NAME":"EARTH","COUNTRY_CODE":"US","ECCENTRICITY":"0.00015450","ELEMENT_SET_NO":"999","MEAN_MOTION_DOT":"0.00000030","MEAN_MOTION":"15.06404898","OBJECT_ID":"2020-006AF","CLASSIFICATION_TYPE":"U","MEAN_MOTION_DDOT":"0.0000000000000","TLE_LINE2":"2 45073  53.0549  70.4024 0001545  80.2301 279.8862 15.06404898101585","APOAPSIS":"548.269","LAUNCH_DATE":"2020-01-29","SEMIMAJOR_AXIS":"6925.334","RA_OF_ASC_NODE":"70.4024","REV_AT_EPOCH":"10158","PERIAPSIS":"546.129","MEAN_ELEMENT_THEORY":"SGP4","NORAD_CAT_ID":"45073","TLE_LINE1":"1 45073U 20006AF  21334.53898164  .00000030  00000-0  20914-4 0  9997","ARG_OF_PERICENTER":"80.2301","EPHEMERIS_TYPE":"0","EPOCH":"2021-11-30T12:56:08.013696","OBJECT_NAME":"STARLINK-1170","PERIOD":"95.592","MEAN_ANOMALY":"279.8862","INCLINATION":"53.0549","GP_ID":"190815244","SITE":"AFETR","BSTAR":"0.00002091400000"},{"CLASSIFICATION_TYPE":"U","OBJECT_ID":"2020-006AG","LAUNCH_DATE":"2020-01-29","APOAPSIS":"548.454","SEMIMAJOR_AXIS":"6925.369","RA_OF_ASC_NODE":"70.1867","TLE_LINE2":"2 45074  53.0551  70.1867 0001762  70.2974 289.8205 15.06393295101598","MEAN_MOTION_DDOT":"0.0000000000000","EPHEMERIS_TYPE":"0","ARG_OF_PERICENTER":"70.2974","NORAD_CAT_ID":"45074","TLE_LINE1":"1 45074U 20006AG  21334.59059626  .00000207  00000-0  32795-4 0  9992","PERIAPSIS":"546.014","MEAN_ELEMENT_THEORY":"SGP4","REV_AT_EPOCH":"10159","SITE":"AFETR","GP_ID":"190813992","BSTAR":"0.00003279500000","INCLINATION":"53.0551","PERIOD":"95.593","MEAN_ANOMALY":"289.8205","EPOCH":"2021-11-30T14:10:27.516864","OBJECT_NAME":"STARLINK-1172","OBJECT_TYPE":"PAYLOAD","RCS_SIZE":"LARGE","REF_FRAME":"TEME","DECAY_DATE":null,"COUNTRY_CODE":"US","CENTER_NAME":"EARTH","TIME_SYSTEM":"UTC","FILE":"3228256","ECCENTRICITY":"0.00017620","MEAN_MOTION_DOT":"0.00000207","ELEMENT_SET_NO":"999","MEAN_MOTION":"15.06393295"},{"ELEMENT_SET_NO":"999","MEAN_MOTION_DOT":"-0.00000072","MEAN_MOTION":"15.06403006","TIME_SYSTEM":"UTC","FILE":"3227572","RCS_SIZE":"LARGE","REF_FRAME":"TEME","OBJECT_TYPE":"PAYLOAD","DECAY_DATE":null,"CENTER_NAME":"EARTH","COUNTRY_CODE":"US","ECCENTRICITY":"0.00014030","REV_AT_EPOCH":"10155","PERIAPSIS":"546.233","MEAN_ELEMENT_THEORY":"SGP4","NORAD_CAT_ID":"45075","TLE_LINE1":"1 45075U 20006AH  21334.29202674 -.00000072  00000-0  14044-4 0  9991","ARG_OF_PERICENTER":"70.3017","EPHEMERIS_TYPE":"0","EPOCH":"2021-11-30T07:00:31.110336","OBJECT_NAME":"STARLINK-1174","PERIOD":"95.592","MEAN_ANOMALY":"289.8123","INCLINATION":"53.0563","SITE":"AFETR","GP_ID":"190782022","BSTAR":"0.00001404400000","OBJECT_ID":"2020-006AH","CLASSIFICATION_TYPE":"U","MEAN_MOTION_DDOT":"0.0000000000000","TLE_LINE2":"2 45075  53.0563  71.5298 0001403  70.3017 289.8123 15.06403006101553","LAUNCH_DATE":"2020-01-29","APOAPSIS":"548.176","RA_OF_ASC_NODE":"71.5298","SEMIMAJOR_AXIS":"6925.339"},{"MEAN_MOTION":"15.06398552","ELEMENT_SET_NO":"999","MEAN_MOTION_DOT":"0.00000077","ECCENTRICITY":"0.00012090","FILE":"3228256","TIME_SYSTEM":"UTC","COUNTRY_CODE":"US","DECAY_DATE":null,"CENTER_NAME":"EARTH","REF_FRAME":"TEME","RCS_SIZE":"LARGE","OBJECT_TYPE":"PAYLOAD","MEAN_ANOMALY":"285.2712","PERIOD":"95.592","OBJECT_NAME":"STARLINK-1180","EPOCH":"2021-11-30T13:33:17.684064","GP_ID":"190815493","BSTAR":"0.00002404200000","SITE":"AFETR","INCLINATION":"53.0551","MEAN_ELEMENT_THEORY":"SGP4","PERIAPSIS":"546.381","REV_AT_EPOCH":"10159","EPHEMERIS_TYPE":"0","ARG_OF_PERICENTER":"74.8410","TLE_LINE1":"1 45076U 20006AJ  21334.56478801  .00000077  00000-0  24042-4 0  9992","NORAD_CAT_ID":"45076","SEMIMAJOR_AXIS":"6925.353","RA_OF_ASC_NODE":"70.2915","LAUNCH_DATE":"2020-01-29","APOAPSIS":"548.055","MEAN_MOTION_DDOT":"0.0000000000000","TLE_LINE2":"2 45076  53.0551  70.2915 0001209  74.8410 285.2712 15.06398552101590","CLASSIFICATION_TYPE":"U","OBJECT_ID":"2020-006AJ"}];
